CUTE-1.7+APD II (CO-65) 
1 32785U 08021C   22261.86107904  .00002320  00000+0  24676-3 0  9998
2 32785  97.6674 229.8121 0010943 286.9567  73.0451 14.89873018780465
AAUSAT-II               
1 32788U 08021F   22261.89988154  .00005082  00000+0  43315-3 0  9997
2 32788  97.5416 243.9815 0011943 157.4717 202.7033 14.98125649782423
DELFI-C3 (DO-64)        
1 32789U 08021G   22261.82804009  .00013622  00000+0  71767-3 0  9998
2 32789  97.3355 284.8462 0009711  11.6361 348.5094 15.15672622786060
SEEDS II (CO-66)        
1 32791U 08021J   22261.67724211  .00003410  00000+0  33233-3 0  9990
2 32791  97.6214 235.0313 0011063 234.6012 125.4175 14.93084633781102
SWISSCUBE               
1 35932U 09051B   22261.84761717  .00000548  00000+0  13294-3 0  9999
2 35932  98.5569 120.3489 0008488 115.8933 244.3140 14.56961425689690
BEESAT-1                
1 35933U 09051C   22261.87071212  .00000470  00000+0  11547-3 0  9990
2 35933  98.5506 121.9360 0006545 125.4185 234.7624 14.56965506689778
ITUPSAT1                
1 35935U 09051E   22261.87677498  .00000430  00000+0  10863-3 0  9996
2 35935  98.5606 121.9733 0008798 130.7110 229.4852 14.56067093689479
TISAT 1                 
1 36799U 10035E   22261.53924769  .00002778  00000+0  27113-3 0  9991
2 36799  98.1723 115.6310 0012421 144.3699 215.8350 14.93252089661650
M-CUBED & EXP-1 PRIME   
1 37855U 11061F   22261.74540484  .00015649  00000+0  65892-3 0  9993
2 37855 101.7211  70.3778 0148763 142.6589 218.5080 15.13985484595347
AEROCUBE 4.5A           
1 38767U 12048K   22261.89414693  .00003178  00000+0  22743-3 0  9992
2 38767  64.6653 177.2821 0170505 237.0335 121.4289 14.95425646164758
AEROCUBE 4.5B           
1 38768U 12048L   22261.87373103  .00004462  00000+0  28536-3 0  9994
2 38768  64.6655 129.7139 0156296 232.4306 126.2530 15.00395423165167
STRAND-1                
1 39090U 13009E   22261.50350730  .00000171  00000+0  74397-4 0  9992
2 39090  98.4007  97.1989 0009088   2.0723 358.0499 14.35326770500745
BRITE-AUSTRIA           
1 39091U 13009F   22261.55937595  .00000132  00000+0  60999-4 0  9998
2 39091  98.4027  96.4358 0010621   7.3986 352.7355 14.35300314500786
SOMP                    
1 39134U 13015E   22261.86345289  .00014603  00000+0  48618-3 0  9991
2 39134  64.8601 114.8204 0035168 264.8721  94.8397 15.30755117521148
BEESAT-3                
1 39135U 13015F   22261.86318542  .00011263  00000+0  44041-3 0  9999
2 39135  64.8652 153.2296 0039324 269.3475  90.3149 15.25510716520353
BEESAT-2                
1 39136U 13015G   22261.84290640  .00010579  00000+0  43415-3 0  9999
2 39136  64.8741 162.0310 0022063 293.3308  66.5500 15.24426296520143
NEE-01 PEGASO           
1 39151U 13018B   22261.27364778  .00001253  00000+0  16790-3 0  9995
2 39151  97.9959   6.6520 0015781 317.7202  42.2793 14.81126390507411
ESTCUBE 1               
1 39161U 13021C   22261.75672575  .00001130  00000+0  18304-3 0  9997
2 39161  97.9047 336.5528 0010406 118.3534 241.8722 14.73100551503209
POPACS 1                
1 39268U 13055D   22261.36921866  .00010277  00000+0  25900-3 0  9991
2 39268  80.9964 139.3751 0559261 279.4131  74.4287 14.53219288466786
POPACS 2                
1 39269U 13055E   22261.83190049  .00012114  00000+0  32677-3 0  9996
2 39269  81.0141 198.5449 0642997  72.7445 294.3034 14.34148142463563
POPACS 3                
1 39270U 13055F   22261.65565681  .00004927  00000+0  14784-3 0  9998
2 39270  81.0126 233.2550 0686102 170.8750 190.5694 14.22686719441887
ZACUBE-1 (TSHEPISOSAT)  
1 39417U 13066B   22261.84967509  .00001889  00000+0  23404-3 0  9992
2 39417  97.6464 229.1904 0059128  98.1011 262.6916 14.82604016476960
WNISAT-1                
1 39423U 13066H   22261.64010073  .00000491  00000+0  10601-3 0  9995
2 39423  97.7375 136.1945 0173470 206.3250 152.9059 14.53568655467994
TRITON-1                
1 39427U 13066M   22261.78415937  .00002087  00000+0  33103-3 0  9997
2 39427  97.8143 193.5377 0110690 327.1174  32.3178 14.69197347472486
DELFI-N3XT              
1 39428U 13066N   22261.82257827  .00003310  00000+0  51071-3 0  9999
2 39428  97.8148 192.1881 0116348 340.1143  19.5547 14.69548368472248
GOMX-1                  
1 39430U 13066Q   22261.78064812  .00001176  00000+0  21603-3 0  9993
2 39430  97.8003 163.6226 0150211 110.3514 251.3900 14.60358171469914
CUBEBUG-2 (LO-74)       
1 39440U 13066AA  22261.86893089  .00001238  00000+0  17324-3 0  9993
2 39440  97.7346 215.5519 0078034 187.3177 172.6901 14.77256076474075
NEE-02 KRYSAOR          
1 39441U 13066AB  22261.81777979  .00000901  00000+0  13189-3 0  9999
2 39441  97.7455 212.6319 0079633 201.8264 157.9547 14.75923496473805
FUNCUBE-1 (AO-73)       
1 39444U 13066AE  22261.86418177  .00002491  00000+0  29852-3 0  9999
2 39444  97.6344 231.6242 0057983  86.0178 274.7662 14.83740612475377
UWE-3                   
1 39446U 13066AG  22261.86463461  .00001445  00000+0  19096-3 0  9994
2 39446  97.6951 221.9498 0069194 143.6021 216.9926 14.79814606474271
AEROCUBE 5A             
1 39465U 13072D   22261.87827366  .00052021  00000+0  25812-2 0  9999
2 39465 120.4841 302.8299 0183235  19.5912 341.2086 15.03798445163630
AEROCUBE 5B             
1 39466U 13072E   22261.32126836  .00109867  00000+0  25967-2 0  9996
2 39466 120.4542  40.5318 0112921  36.9153 323.9637 15.34658122164890
BRITE-CA1 (TORONTO)     
1 40020U 14033L   22261.37858199  .00000501  00000+0  92879-4 0  9994
2 40020  97.7906  55.6724 0085936 327.9256  31.6736 14.67133373441283
DUCHIFAT-1              
1 40021U 14033M   22261.82672694  .00004131  00000+0  39861-3 0  9993
2 40021  98.0198 213.7876 0014229  91.9536 268.3312 14.93373765448637
NANOSATC-BR1            
1 40024U 14033Q   22261.83917667  .00002643  00000+0  26522-3 0  9995
2 40024  97.9907 206.6664 0013345  97.9589 262.3144 14.92136478447907
QB50P1                  
1 40025U 14033R   22261.82995571  .00002365  00000+0  24573-3 0  9990
2 40025  97.9632 199.9925 0013604 107.2498 253.0209 14.90840510447679
QB50P2                  
1 40032U 14033Y   22261.75783936  .00002539  00000+0  26729-3 0  9998
2 40032  97.9389 194.9405 0013074 105.3698 254.8965 14.90242594447515
PERSEUS-M2              
1 40037U 14033AD  22261.76283387  .00000900  00000+0  10588-3 0  9995
2 40037  97.8935 183.4547 0015341 128.0559 232.2043 14.87237469446992
PERSEUS-M1              
1 40039U 14033AF  22261.78222704  .00000875  00000+0  10413-3 0  9993
2 40039  97.8828 181.0614 0015200 127.0420 233.2189 14.86843177446871
POLYITAN-1              
1 40042U 14033AJ  22261.77374873  .00003241  00000+0  33353-3 0  9999
2 40042  97.9741 201.2582 0015806 100.2999 260.0001 14.90932883447550
TIGRISAT                
1 40043U 14033AK  22261.77102705  .00001201  00000+0  18040-3 0  9993
2 40043  97.6577  86.0134 0058221 213.0465 146.7102 14.75163319443388
AEROCUBE 6A             
1 40045U 14033AM  22261.51721811  .00001159  00000+0  16901-3 0  9998
2 40045  97.6637  94.8289 0055959 201.0597 158.8310 14.76554928443514
AEROCUBE 6B             
1 40046U 14033AN  22261.80879057  .00002093  00000+0  29661-3 0  9992
2 40046  97.6557  93.5264 0054980 197.9747 161.9521 14.77010589443563
UKUBE-1                 
1 40074U 14037F   22261.64027444  .00002231  00000+0  26410-3 0  9997
2 40074  98.3683 147.1372 0004634   4.6891 355.4355 14.85681868443909
BRITE-PL2 (HEWELIUSZ)   
1 40119U 14049B   22261.78862772  .00000965  00000+0  11849-3 0  9998
2 40119  97.8841 356.4673 0015925 299.0347  60.9272 14.85284791437867
FIREBIRD 4              
1 40378U 15003C   22261.65378235  .00022667  00000+0  62747-3 0  9994
2 40378  99.0851 147.7088 0096184  68.7739 292.3739 15.32402649422682
GRIFEX                  
1 40379U 15003D   22261.62339369  .00011465  00000+0  38890-3 0  9993
2 40379  99.0983 132.5193 0113054 114.1143 247.1962 15.24750913421810
CP10 (EXOCUBE)          
1 40380U 15003E   22261.54858877  .00007842  00000+0  29362-3 0  9994
2 40380  99.1095 124.7749 0121507 139.9162 221.1113 15.20945942421303
TIANWANG 1A (TW-1A)     
1 40928U 15051D   22261.80694459  .00067346  00000+0  61088-3 0  9994
2 40928  97.0319 284.0935 0006853  62.9818  23.6901 15.67788979392823
EXACTVIEW 9             
1 40936U 15052G   22261.41359214  .00001793  00000+0  15825-3 0  9990
2 40936   6.0022 230.0240 0009998  31.1464 328.9255 14.77300401376983
AEROCUBE 5C             
1 40965U 15058B   22261.83354329  .00000978  00000+0  12768-3 0  9993
2 40965  64.7777 167.9500 0180875 169.6988 190.7906 14.75851670162744
AEROCUBE 7              
1 40966U 15058C   22261.86307844  .00001316  00000+0  16368-3 0  9994
2 40966  64.7776 164.8010 0178755 169.3191 191.1794 14.76460676162757
ATHENOXAT 1             
1 41168U 15077C   22261.81064563  .00018555  00000+0  72937-3 0  9990
2 41168  14.9836 117.4215 0008921 108.1002 338.9578 15.23049730374557
GALASSIA                
1 41170U 15077E   22261.77056339  .00013096  00000+0  52328-3 0  9997
2 41170  14.9872 109.4249 0009966 140.2850 219.8203 15.21934053374456
VELOX-II                
1 41171U 15077F   22261.00543975  .00009143  00000+0  41444-3 0  9996
2 41171  14.9899 193.3847 0007669 318.3307  41.6430 15.16904088373681
HORYU-4                 
1 41340U 16012D   22261.84557770  .00003568  00000+0  24696-3 0  9999
2 41340  31.0041 122.4776 0012950  48.8531 311.3221 15.03793683361792
E-ST@R-II               
1 41459U 16025D   22261.71989248  .00009838  00000+0  41220-3 0  9997
2 41459  98.1931  73.9550 0139465 312.5785  46.3734 15.15257717351618
AAUSAT 4                
1 41460U 16025E   22261.50377584  .00018859  00000+0  67698-3 0  9990
2 41460  98.1846  80.8408 0117813 286.3017  72.5283 15.22324538352089
BEESAT-4                
1 41619U 16040W   22261.63633524  .00016670  00000+0  51792-3 0  9993
2 41619  97.2076 309.8688 0010394 136.6986 223.5075 15.33367311334997
